[{"OBJECT_NAME":"GLOBALSTAR M063","OBJECT_ID":"2000-008A","EPOCH":"2026-03-02T16:56:07.867104","MEAN_MOTION":11.86181323,"ECCENTRICITY":0.0005166,"INCLINATION":51.9942,"RA_OF_ASC_NODE":150.7194,"ARG_OF_PERICENTER":94.0457,"MEAN_ANOMALY":39.9022,"EPHEMERIS_TYPE":0,"CLASSIFICATION_TYPE":"U","NORAD_CAT_ID":26081,"ELEMENT_SET_NO":999,"REV_AT_EPOCH":18825,"BSTAR":0.00018607,"MEAN_MOTION_DOT":-7.0e-7,"MEAN_MOTION_DDOT":0},{"OBJECT_NAME":"GLOBALSTAR M062","OBJECT_ID":"2000-008B","EPOCH":"2026-03-02T09:46:21.606528","MEAN_MOTION":12.43480548,"ECCENTRICITY":0.00071948,"INCLINATION":51.9852,"RA_OF_ASC_NODE":56.421,"ARG_OF_PERICENTER":305.6445,"MEAN_ANOMALY":201.6557,"EPHEMERIS_TYPE":0,"CLASSIFICATION_TYPE":"U","NORAD_CAT_ID":26082,"ELEMENT_SET_NO":999,"REV_AT_EPOCH":52874,"BSTAR":0.00071432757,"MEAN_MOTION_DOT":2.0e-8,"MEAN_MOTION_DDOT":0},{"OBJECT_NAME":"GLOBALSTAR M060","OBJECT_ID":"2000-008C","EPOCH":"2026-03-02T07:36:27.864288","MEAN_MOTION":12.17676093,"ECCENTRICITY":0.00030202,"INCLINATION":52.0029,"RA_OF_ASC_NODE":53.2163,"ARG_OF_PERICENTER":290.0019,"MEAN_ANOMALY":178.4599,"EPHEMERIS_TYPE":0,"CLASSIFICATION_TYPE":"U","NORAD_CAT_ID":26083,"ELEMENT_SET_NO":999,"REV_AT_EPOCH":18381,"BSTAR":-0.00017907141,"MEAN_MOTION_DOT":-1.09e-6,"MEAN_MOTION_DDOT":0},{"OBJECT_NAME":"GLOBALSTAR M064","OBJECT_ID":"2000-008D","EPOCH":"2026-03-02T15:57:07.144992","MEAN_MOTION":11.88542339,"ECCENTRICITY":0.000165,"INCLINATION":52.0006,"RA_OF_ASC_NODE":246.611,"ARG_OF_PERICENTER":156.9355,"MEAN_ANOMALY":203.1551,"EPHEMERIS_TYPE":0,"CLASSIFICATION_TYPE":"U","NORAD_CAT_ID":26084,"ELEMENT_SET_NO":999,"REV_AT_EPOCH":19783,"BSTAR":-3.6714e-5,"MEAN_MOTION_DOT":-8.6e-7,"MEAN_MOTION_DDOT":0},{"OBJECT_NAME":"GLOBALSTAR M065","OBJECT_ID":"2007-020A","EPOCH":"2026-03-02T16:10:44.184864","MEAN_MOTION":12.62021019,"ECCENTRICITY":0.0010387,"INCLINATION":51.9891,"RA_OF_ASC_NODE":159.5037,"ARG_OF_PERICENTER":158.0158,"MEAN_ANOMALY":349.9836,"EPHEMERIS_TYPE":0,"CLASSIFICATION_TYPE":"U","NORAD_CAT_ID":31571,"ELEMENT_SET_NO":999,"REV_AT_EPOCH":86604,"BSTAR":-3.9155e-5,"MEAN_MOTION_DOT":-1.11e-6,"MEAN_MOTION_DDOT":0},{"OBJECT_NAME":"GLOBALSTAR M069","OBJECT_ID":"2007-020C","EPOCH":"2026-03-02T18:15:53.489664","MEAN_MOTION":12.23468773,"ECCENTRICITY":9.13e-5,"INCLINATION":52.0022,"RA_OF_ASC_NODE":193.353,"ARG_OF_PERICENTER":283.6654,"MEAN_ANOMALY":228.5271,"EPHEMERIS_TYPE":0,"CLASSIFICATION_TYPE":"U","NORAD_CAT_ID":31573,"ELEMENT_SET_NO":999,"REV_AT_EPOCH":86577,"BSTAR":-0.00021479,"MEAN_MOTION_DOT":-1.16e-6,"MEAN_MOTION_DDOT":0},{"OBJECT_NAME":"GLOBALSTAR M072","OBJECT_ID":"2007-020D","EPOCH":"2026-03-02T15:13:39.307008","MEAN_MOTION":11.91655926,"ECCENTRICITY":0.0001435,"INCLINATION":51.9957,"RA_OF_ASC_NODE":23.9167,"ARG_OF_PERICENTER":95.8416,"MEAN_ANOMALY":75.1903,"EPHEMERIS_TYPE":0,"CLASSIFICATION_TYPE":"U","NORAD_CAT_ID":31574,"ELEMENT_SET_NO":999,"REV_AT_EPOCH":86227,"BSTAR":3.8929e-5,"MEAN_MOTION_DOT":-8.1e-7,"MEAN_MOTION_DDOT":0},{"OBJECT_NAME":"GLOBALSTAR M071","OBJECT_ID":"2007-020F","EPOCH":"2026-03-02T17:57:08.570304","MEAN_MOTION":12.18266643,"ECCENTRICITY":2.7e-5,"INCLINATION":52.0043,"RA_OF_ASC_NODE":226.2969,"ARG_OF_PERICENTER":142.6109,"MEAN_ANOMALY":321.6247,"EPHEMERIS_TYPE":0,"CLASSIFICATION_TYPE":"U","NORAD_CAT_ID":31576,"ELEMENT_SET_NO":999,"REV_AT_EPOCH":52645,"BSTAR":-0.00034999,"MEAN_MOTION_DOT":-1.27e-6,"MEAN_MOTION_DDOT":0},{"OBJECT_NAME":"GLOBALSTAR M067","OBJECT_ID":"2007-048A","EPOCH":"2026-03-02T13:27:30.225600","MEAN_MOTION":12.4068506,"ECCENTRICITY":0.0001082,"INCLINATION":51.9762,"RA_OF_ASC_NODE":359.8983,"ARG_OF_PERICENTER":146.8908,"MEAN_ANOMALY":24.0743,"EPHEMERIS_TYPE":0,"CLASSIFICATION_TYPE":"U","NORAD_CAT_ID":32263,"ELEMENT_SET_NO":999,"REV_AT_EPOCH":84155,"BSTAR":-5.3788e-5,"MEAN_MOTION_DOT":-1.05e-6,"MEAN_MOTION_DDOT":0},{"OBJECT_NAME":"GLOBALSTAR M070","OBJECT_ID":"2007-048B","EPOCH":"2026-03-02T10:39:37.677312","MEAN_MOTION":12.62331211,"ECCENTRICITY":3.962e-5,"INCLINATION":51.9754,"RA_OF_ASC_NODE":61.7358,"ARG_OF_PERICENTER":64.771,"MEAN_ANOMALY":100.1511,"EPHEMERIS_TYPE":0,"CLASSIFICATION_TYPE":"U","NORAD_CAT_ID":32264,"ELEMENT_SET_NO":999,"REV_AT_EPOCH":84628,"BSTAR":0.00018026535,"MEAN_MOTION_DOT":-7.1e-7,"MEAN_MOTION_DDOT":0},{"OBJECT_NAME":"GLOBALSTAR M066","OBJECT_ID":"2007-048C","EPOCH":"2026-03-02T14:23:04.992576","MEAN_MOTION":12.30385704,"ECCENTRICITY":0.0004569,"INCLINATION":51.9625,"RA_OF_ASC_NODE":3.8958,"ARG_OF_PERICENTER":173.7511,"MEAN_ANOMALY":357.5879,"EPHEMERIS_TYPE":0,"CLASSIFICATION_TYPE":"U","NORAD_CAT_ID":32265,"ELEMENT_SET_NO":999,"REV_AT_EPOCH":84710,"BSTAR":-7.7344e-5,"MEAN_MOTION_DOT":-1.04e-6,"MEAN_MOTION_DDOT":0},{"OBJECT_NAME":"GLOBALSTAR M068","OBJECT_ID":"2007-048D","EPOCH":"2026-03-02T19:39:17.866656","MEAN_MOTION":12.62841966,"ECCENTRICITY":0.0001134,"INCLINATION":51.9863,"RA_OF_ASC_NODE":233.848,"ARG_OF_PERICENTER":39.3855,"MEAN_ANOMALY":69.6765,"EPHEMERIS_TYPE":0,"CLASSIFICATION_TYPE":"U","NORAD_CAT_ID":32266,"ELEMENT_SET_NO":999,"REV_AT_EPOCH":85023,"BSTAR":0.00020561,"MEAN_MOTION_DOT":-6.7e-7,"MEAN_MOTION_DDOT":0},{"OBJECT_NAME":"GLOBALSTAR M079","OBJECT_ID":"2010-054A","EPOCH":"2026-03-02T07:21:02.890944","MEAN_MOTION":12.62263798,"ECCENTRICITY":6.287e-5,"INCLINATION":52.0032,"RA_OF_ASC_NODE":74.0296,"ARG_OF_PERICENTER":115.7294,"MEAN_ANOMALY":257.6419,"EPHEMERIS_TYPE":0,"CLASSIFICATION_TYPE":"U","NORAD_CAT_ID":37188,"ELEMENT_SET_NO":999,"REV_AT_EPOCH":70905,"BSTAR":6.3428244e-5,"MEAN_MOTION_DOT":-9.2e-7,"MEAN_MOTION_DDOT":0},{"OBJECT_NAME":"GLOBALSTAR M074","OBJECT_ID":"2010-054B","EPOCH":"2026-03-02T10:35:49.844832","MEAN_MOTION":12.62266303,"ECCENTRICITY":3.121e-5,"INCLINATION":52.0011,"RA_OF_ASC_NODE":72.9008,"ARG_OF_PERICENTER":130.4966,"MEAN_ANOMALY":17.0928,"EPHEMERIS_TYPE":0,"CLASSIFICATION_TYPE":"U","NORAD_CAT_ID":37189,"ELEMENT_SET_NO":999,"REV_AT_EPOCH":70967,"BSTAR":6.7135915e-5,"MEAN_MOTION_DOT":-9.2e-7,"MEAN_MOTION_DDOT":0},{"OBJECT_NAME":"GLOBALSTAR M076","OBJECT_ID":"2010-054C","EPOCH":"2026-03-02T06:43:04.973952","MEAN_MOTION":12.6227039,"ECCENTRICITY":5.383e-5,"INCLINATION":52.003,"RA_OF_ASC_NODE":73.5869,"ARG_OF_PERICENTER":137.9995,"MEAN_ANOMALY":234.7608,"EPHEMERIS_TYPE":0,"CLASSIFICATION_TYPE":"U","NORAD_CAT_ID":37190,"ELEMENT_SET_NO":999,"REV_AT_EPOCH":70937,"BSTAR":6.8923275e-5,"MEAN_MOTION_DOT":-9.1e-7,"MEAN_MOTION_DDOT":0},{"OBJECT_NAME":"GLOBALSTAR M077","OBJECT_ID":"2010-054D","EPOCH":"2026-03-02T08:56:14.264448","MEAN_MOTION":11.68176311,"ECCENTRICITY":6.722e-5,"INCLINATION":51.9951,"RA_OF_ASC_NODE":90.528,"ARG_OF_PERICENTER":149.9151,"MEAN_ANOMALY":223.5028,"EPHEMERIS_TYPE":0,"CLASSIFICATION_TYPE":"U","NORAD_CAT_ID":37191,"ELEMENT_SET_NO":999,"REV_AT_EPOCH":70866,"BSTAR":0.0001925611,"MEAN_MOTION_DOT":-6.8e-7,"MEAN_MOTION_DDOT":0}]
