GLOBALSTAR M063         
1 26081U 00008A   26061.70564661 -.00000070  00000+0  18607-3 0  9997
2 26081  51.9942 150.7194 0005166  94.0457  39.9022 11.86181323188256
GLOBALSTAR M062         
1 26082U 00008B   26061.40719452  .00000002  00000+0  71433-3 0  9995
2 26082  51.9852  56.4210 0007194 305.6445 201.6557 12.43480548528747
GLOBALSTAR M060         
1 26083U 00008C   26061.31698917 -.00000109  00000+0 -17907-3 0  9994
2 26083  52.0029  53.2163 0003020 290.0019 178.4599 12.17676093183811
GLOBALSTAR M064         
1 26084U 00008D   26061.66466603 -.00000086  00000+0 -36714-4 0  9990
2 26084  52.0006 246.6110 0001650 156.9355 203.1551 11.88542339197830
GLOBALSTAR M065         
1 31571U 07020A   26061.67412251 -.00000111  00000+0 -39155-4 0  9990
2 31571  51.9891 159.5037 0010387 158.0158 349.9836 12.62021019866049
GLOBALSTAR M069         
1 31573U 07020C   26061.76103576 -.00000116  00000+0 -21479-3 0  9993
2 31573  52.0022 193.3530 0000913 283.6654 228.5271 12.23468773865776
GLOBALSTAR M072         
1 31574U 07020D   26061.63448272 -.00000081  00000+0  38929-4 0  9994
2 31574  51.9957  23.9167 0001435  95.8416  75.1903 11.91655926862277
GLOBALSTAR M071         
1 31576U 07020F   26061.74801586 -.00000127  00000+0 -34999-3 0  9993
2 31576  52.0043 226.2969 0000270 142.6109 321.6247 12.18266643526452
GLOBALSTAR M067         
1 32263U 07048A   26061.56076650 -.00000105  00000+0 -53788-4 0  9997
2 32263  51.9762 359.8983 0001082 146.8908  24.0743 12.40685060841555
GLOBALSTAR M070         
1 32264U 07048B   26061.44418608 -.00000071  00000+0  18027-3 0  9995
2 32264  51.9754  61.7358 0000396  64.7710 100.1511 12.62331211846282
GLOBALSTAR M066         
1 32265U 07048C   26061.59936334 -.00000104  00000+0 -77344-4 0  9999
2 32265  51.9625   3.8958 0004569 173.7511 357.5879 12.30385704847107
GLOBALSTAR M068         
1 32266U 07048D   26061.81895679 -.00000067  00000+0  20561-3 0  9996
2 32266  51.9863 233.8480 0001134  39.3855  69.6765 12.62841966850235
GLOBALSTAR M079         
1 37188U 10054A   26061.30628346 -.00000092  00000+0  63428-4 0  9992
2 37188  52.0032  74.0296 0000628 115.7294 257.6419 12.62263798709055
GLOBALSTAR M074         
1 37189U 10054B   26061.44154913 -.00000092  00000+0  67136-4 0  9992
2 37189  52.0011  72.9008 0000312 130.4966  17.0928 12.62266303709677
GLOBALSTAR M076         
1 37190U 10054C   26061.27991868 -.00000091  00000+0  68923-4 0  9997
2 37190  52.0030  73.5869 0000538 137.9995 234.7608 12.62270390709377
GLOBALSTAR M077         
1 37191U 10054D   26061.37238732 -.00000068  00000+0  19256-3 0  9991
2 37191  51.9951  90.5280 0000672 149.9151 223.5028 11.68176311708666
